[{"OBJECT_NAME":"STARLINK-3268","OBJECT_ID":"2021-125AL","EPOCH":"2026-03-09T21:39:24.501888","MEAN_MOTION":15.08832645,"ECCENTRICITY":0.00012008,"INCLINATION":53.2168,"RA_OF_ASC_NODE":238.1677,"ARG_OF_PERICENTER":74.789,"MEAN_ANOMALY":285.3235,"EPHEMERIS_TYPE":0,"CLASSIFICATION_TYPE":"U","NORAD_CAT_ID":50190,"ELEMENT_SET_NO":999,"REV_AT_EPOCH":23676,"BSTAR":-0.00011596384,"MEAN_MOTION_DOT":-2.133e-5,"MEAN_MOTION_DDOT":0},{"OBJECT_NAME":"CZ-4B DEB","OBJECT_ID":"2008-053L","EPOCH":"2026-03-08T19:52:33.417984","MEAN_MOTION":15.09778257,"ECCENTRICITY":0.00077037,"INCLINATION":97.7892,"RA_OF_ASC_NODE":87.441,"ARG_OF_PERICENTER":237.5543,"MEAN_ANOMALY":122.4941,"EPHEMERIS_TYPE":0,"CLASSIFICATION_TYPE":"U","NORAD_CAT_ID":36290,"ELEMENT_SET_NO":999,"REV_AT_EPOCH":71411,"BSTAR":0.00021001,"MEAN_MOTION_DOT":3.326e-5,"MEAN_MOTION_DDOT":0}]
